ONEWEB-0158             
1 48054U 21025N   26183.36382400  .00000303  00000+0  79593-3 0  9998
2 48054  87.8976 317.1972 0001716 103.1150 257.0171 13.13469592255620
ONEWEB-0157             
1 48055U 21025P   26183.61776280 -.00000123  00000+0 -37216-3 0  9998
2 48055  87.8975 317.1517 0002254 101.4134 258.7249 13.13470601255599
ONEWEB-0162             
1 48056U 21025Q   26183.44157178  .00000274  00000+0  71461-3 0  9994
2 48056  87.8975 317.1873 0001932  94.2480 265.8870 13.13469428255549
ONEWEB-0155             
1 48057U 21025R   26183.60082897  .00000173  00000+0  43745-3 0  9990
2 48057  87.8977 317.1519 0001981 103.4634 256.6716 13.13468942255702
ONEWEB-0149             
1 48058U 21025S   26183.62283617 -.00000307  00000+0 -87608-3 0  9993
2 48058  87.8976 317.1514 0001946  93.0761 267.0591 13.13469089255512
ONEWEB-0148             
1 48059U 21025T   26183.66177063  .00000296  00000+0  77552-3 0  9997
2 48059  87.8972 317.1497 0002199  85.5078 274.6303 13.13469627255644
ONEWEB-0160             
1 48060U 21025U   26183.60251538  .00000237  00000+0  61494-3 0  9996
2 48060  87.8974 317.1576 0001165  99.2266 260.8995 13.13468698255583
ONEWEB-0163             
1 48061U 21025V   26183.35875110  .00000453  00000+0  12056-2 0  9996
2 48061  87.8977 317.2013 0002175 101.2744 258.8630 13.13469497255672
ONEWEB-0159             
1 48062U 21025W   26183.65499877  .00000212  00000+0  54482-3 0  9995
2 48062  87.8980 317.1366 0002155 101.9617 258.1754 13.13469830255638
ONEWEB-0164             
1 48063U 21025X   26183.40783648 -.00000137  00000+0 -40991-3 0  9999
2 48063  87.8981 317.1920 0001828  99.8667 260.2668 13.13469746255580
ONEWEB-0167             
1 48064U 21025Y   26183.35960773  .00000383  00000+0  10139-2 0  9991
2 48064  87.8970 317.2100 0002232 115.0177 245.1184 13.13469403255560
ONEWEB-0166             
1 48065U 21025Z   26183.61098704  .00000032  00000+0  53649-4 0  9993
2 48065  87.8981 317.1329 0001941  97.6011 262.5338 13.13468795255672
ONEWEB-0151             
1 48066U 21025AA  26183.61266979  .00000008  00000+0 -13898-4 0  9991
2 48066  87.8975 317.1482 0001870 103.1060 257.0278 13.13468891255617
ONEWEB-0170             
1 48067U 21025AB  26183.62112682 -.00000205  00000+0 -59618-3 0  9993
2 48067  87.8975 317.1485 0001477 111.9365 248.1921 13.13468583255578
ONEWEB-0168             
1 48068U 21025AC  26183.60589950  .00000164  00000+0  41494-3 0  9993
2 48068  87.8979 317.1522 0001931 100.6349 259.4998 13.13468481255584
ONEWEB-0173             
1 48069U 21025AD  26183.36890790  .00000240  00000+0  62225-3 0  9994
2 48069  87.8974 317.2000 0002191 104.1210 256.0163 13.13469535255798
ONEWEB-0171             
1 48070U 21025AE  26183.40614236 -.00000251  00000+0 -72258-3 0  9991
2 48070  87.8967 317.2001 0001872 102.5318 257.6020 13.13469353255617
ONEWEB-0172             
1 48071U 21025AF  26183.61436942 -.00000015  00000+0 -75777-4 0  9999
2 48071  87.8975 317.1499 0001991 103.6498 256.4853 13.13469284256536
ONEWEB-0174             
1 48072U 21025AG  26183.59575018 -.00000699  00000+0 -19485-2 0  9995
2 48072  87.8972 317.1526 0002118  93.1467 266.9904 13.13473838255853
ONEWEB-0175             
1 48073U 21025AH  26183.62621269 -.00000223  00000+0 -64465-3 0  9992
2 48073  87.8980 317.1317 0001834 109.6802 250.4525 13.13469205255514
ONEWEB-0177             
1 48074U 21025AJ  26183.40953459 -.00000134  00000+0 -40106-3 0  9995
2 48074  87.8975 317.1926 0002147  97.7308 262.4065 13.13470347255679
ONEWEB-0178             
1 48075U 21025AK  26183.65683887  .00000212  00000+0  54570-3 0  9993
2 48075  87.8967 317.1545 0001971 106.5534 253.5812 13.13470224255756
ONEWEB-0108             
1 48076U 21025AL  26183.61605775 -.00000070  00000+0 -22786-3 0  9998
2 48076  87.8981 317.1435 0001777  92.4743 267.6589 13.13469101255670
ONEWEB-0169             
1 48077U 21025AM  26183.41969054  .00000139  00000+0  34563-3 0  9990
2 48077  87.8974 317.1899 0002014  95.0451 265.0909 13.13469878254305
ONEWEB-0176             
1 48210U 21031A   26183.55477665 -.00000222  00000+0 -63211-3 0  9990
2 48210  87.8975 286.6372 0002032 103.5210 256.6146 13.14502478250332
ONEWEB-0184             
1 48211U 21031B   26183.29946681 -.00000148  00000+0 -43383-3 0  9996
2 48211  87.8981 286.6895 0002213 123.0988 237.0354 13.14502600250274
ONEWEB-0179             
1 48212U 21031C   26183.53786520  .00000384  00000+0  11979-3 0  9994
2 48212  87.8997 283.2782 0219990 206.7411 152.2306 14.25537742251232
ONEWEB-0180             
1 48213U 21031D   26183.53100019 -.00000052  00000+0 -17482-3 0  9997
2 48213  87.8984 286.6398 0002366 105.6847 254.4544 13.14502660250232
ONEWEB-0218             
1 48214U 21031E   26183.55319956 -.00000056  00000+0 -18587-3 0  9993
2 48214  87.8982 286.6349 0002520 119.5193 240.6189 13.14503696250396
ONEWEB-0209             
1 48215U 21031F   26183.54209446 -.00000139  00000+0 -40941-3 0  9996
2 48215  87.8971 286.6525 0002245  99.2252 260.9132 13.14502674250393
