OBJECT_NAME,OBJECT_ID,EPOCH,MEAN_MOTION,ECCENTRICITY,INCLINATION,RA_OF_ASC_NODE,ARG_OF_PERICENTER,MEAN_ANOMALY,EPHEMERIS_TYPE,CLASSIFICATION_TYPE,NORAD_CAT_ID,ELEMENT_SET_NO,REV_AT_EPOCH,BSTAR,MEAN_MOTION_DOT,MEAN_MOTION_DDOT
ONEWEB-0158,2021-025N,2026-07-02T08:43:54.393600,13.13469592,.00017162,87.8976,317.1972,103.1150,257.0171,0,U,48054,999,25562,.79593469E-3,.303E-5,0
ONEWEB-0157,2021-025P,2026-07-02T14:49:34.705920,13.13470601,.00022547,87.8975,317.1517,101.4134,258.7249,0,U,48055,999,25559,-.37215863E-3,-.123E-5,0
ONEWEB-0162,2021-025Q,2026-07-02T10:35:51.801792,13.13469428,.00019322,87.8975,317.1873,94.2480,265.8870,0,U,48056,999,25554,.71460567E-3,.274E-5,0
ONEWEB-0155,2021-025R,2026-07-02T14:25:11.623008,13.13468942,.00019814,87.8977,317.1519,103.4634,256.6716,0,U,48057,999,25570,.43744854E-3,.173E-5,0
ONEWEB-0149,2021-025S,2026-07-02T14:56:53.045088,13.13469089,.00019469,87.8976,317.1514,93.0761,267.0591,0,U,48058,999,25551,-.87607518E-3,-.307E-5,0
ONEWEB-0148,2021-025T,2026-07-02T15:52:56.982432,13.13469627,.00021996,87.8972,317.1497,85.5078,274.6303,0,U,48059,999,25564,.77552025E-3,.296E-5,0
ONEWEB-0160,2021-025U,2026-07-02T14:27:37.328832,13.13468698,.00011658,87.8974,317.1576,99.2266,260.8995,0,U,48060,999,25558,.61494261E-3,.237E-5,0
ONEWEB-0163,2021-025V,2026-07-02T08:36:36.095040,13.13469497,.00021757,87.8977,317.2013,101.2744,258.8630,0,U,48061,999,25567,.12055888E-2,.453E-5,0
ONEWEB-0159,2021-025W,2026-07-02T15:43:11.893728,13.13469830,.00021552,87.8980,317.1366,101.9617,258.1754,0,U,48062,999,25563,.54482212E-3,.212E-5,0
ONEWEB-0164,2021-025X,2026-07-02T09:47:17.071872,13.13469746,.00018282,87.8981,317.1920,99.8667,260.2668,0,U,48063,999,25558,-.40991356E-3,-.137E-5,0
ONEWEB-0167,2021-025Y,2026-07-02T08:37:50.107872,13.13469403,.0002232,87.8970,317.2100,115.0177,245.1184,0,U,48064,999,25556,.10138901E-2,.383E-5,0
ONEWEB-0166,2021-025Z,2026-07-02T14:39:49.280256,13.13468795,.00019414,87.8981,317.1329,97.6011,262.5338,0,U,48065,999,25567,.53648638E-4,.32E-6,0
ONEWEB-0151,2021-025AA,2026-07-02T14:42:14.669856,13.13468891,.00018705,87.8975,317.1482,103.1060,257.0278,0,U,48066,999,25561,-.13898377E-4,.8E-7,0
ONEWEB-0170,2021-025AB,2026-07-02T14:54:25.357248,13.13468583,.00014778,87.8975,317.1485,111.9365,248.1921,0,U,48067,999,25557,-.5961799E-3,-.205E-5,0
ONEWEB-0168,2021-025AC,2026-07-02T14:32:29.716800,13.13468481,.00019312,87.8979,317.1522,100.6349,259.4998,0,U,48068,999,25558,.41493508E-3,.164E-5,0
ONEWEB-0173,2021-025AD,2026-07-02T08:51:13.642560,13.13469535,.00021919,87.8974,317.2000,104.1210,256.0163,0,U,48069,999,25579,.62224901E-3,.24E-5,0
ONEWEB-0171,2021-025AE,2026-07-02T09:44:50.699904,13.13469353,.00018725,87.8967,317.2001,102.5318,257.6020,0,U,48070,999,25561,-.72258496E-3,-.251E-5,0
ONEWEB-0172,2021-025AF,2026-07-02T14:44:41.517888,13.13469284,.0001991,87.8975,317.1499,103.6498,256.4853,0,U,48071,999,25653,-.75776652E-4,-.15E-6,0
ONEWEB-0174,2021-025AG,2026-07-02T14:17:52.815552,13.13473838,.00021181,87.8972,317.1526,93.1467,266.9904,0,U,48072,999,25585,-.19484969E-2,-.699E-5,0
ONEWEB-0175,2021-025AH,2026-07-02T15:01:44.776416,13.13469205,.00018349,87.8980,317.1317,109.6802,250.4525,0,U,48073,999,25551,-.6446498E-3,-.223E-5,0
ONEWEB-0177,2021-025AJ,2026-07-02T09:49:43.788576,13.13470347,.00021477,87.8975,317.1926,97.7308,262.4065,0,U,48074,999,25567,-.40106104E-3,-.134E-5,0
ONEWEB-0178,2021-025AK,2026-07-02T15:45:50.878368,13.13470224,.00019715,87.8967,317.1545,106.5534,253.5812,0,U,48075,999,25575,.54569668E-3,.212E-5,0
ONEWEB-0108,2021-025AL,2026-07-02T14:47:07.389600,13.13469101,.00017778,87.8981,317.1435,92.4743,267.6589,0,U,48076,999,25567,-.22785632E-3,-.7E-6,0
ONEWEB-0169,2021-025AM,2026-07-02T10:04:21.262656,13.13469878,.00020142,87.8974,317.1899,95.0451,265.0909,0,U,48077,999,25430,.34563126E-3,.139E-5,0
ONEWEB-0176,2021-031A,2026-07-02T13:18:52.702560,13.14502478,.00020321,87.8975,286.6372,103.5210,256.6146,0,U,48210,999,25033,-.63210793E-3,-.222E-5,0
ONEWEB-0184,2021-031B,2026-07-02T07:11:13.932384,13.14502600,.00022131,87.8981,286.6895,123.0988,237.0354,0,U,48211,999,25027,-.43382844E-3,-.148E-5,0
ONEWEB-0179,2021-031C,2026-07-02T12:54:31.553280,14.25537742,.02199903,87.8997,283.2782,206.7411,152.2306,0,U,48212,999,25123,.11978714E-3,.384E-5,0
ONEWEB-0180,2021-031D,2026-07-02T12:44:38.416416,13.14502660,.00023664,87.8984,286.6398,105.6847,254.4544,0,U,48213,999,25023,-.1748196E-3,-.52E-6,0
ONEWEB-0218,2021-031E,2026-07-02T13:16:36.441984,13.14503696,.00025206,87.8982,286.6349,119.5193,240.6189,0,U,48214,999,25039,-.18586835E-3,-.56E-6,0
ONEWEB-0209,2021-031F,2026-07-02T13:00:36.961344,13.14502674,.00022453,87.8971,286.6525,99.2252,260.9132,0,U,48215,999,25039,-.40940879E-3,-.139E-5,0
